STARLINK-31611          
1 59325U 24057F   26067.63887757 -.00000194  00000+0  24895-5 0  9991
2 59325  42.9971 193.4134 0001426 288.4796  71.5901 15.27577803109671
TOMORROW-S2             
1 60485U 24149T   26068.75188364  .00008133  00000+0  27683-3 0  9990
2 60485  97.3857 150.0385 0001648 234.3331 125.7757 15.30674935 86869
